GREENCUBE               
1 53106U 22080B   24228.11242500 -.00000003  00000+0  00000+0 0  9992
2 53106  70.1424 172.0499 0007747  94.1050 266.0495  6.42557430 49057
CAS-5A (FO-118)         
1 54684U 22167C   24247.91841715  .00076871  00000+0  21023-2 0  9998
2 54684  97.6130  34.9926 0009927 230.5371 129.4995 15.37030301 96362
STRATOSAT-TK 1 (RS52S)  
1 57167U 23091B   24247.87304019  .00037929  00000+0  19643-2 0  9996
2 57167  97.6039 300.8746 0014515 202.4796 157.5802 15.16006457 65460
UMKA 1 (RS40S)          
1 57172U 23091G   24247.88622010  .00015192  00000+0  96122-3 0  9993
2 57172  97.6049 299.1744 0015954 208.1268 151.9100 15.08987193 65353
CUBESX-HSE 3 (RS42S)    
1 57178U 23091N   24248.15543775  .00021145  00000+0  12650-2 0  9998
2 57178  97.6081 300.0981 0016532 200.6789 159.3774 15.10950190 65425
MONITOR-4 (RS57S)       
1 57182U 23091S   24248.17102548  .00019833  00000+0  12075-2 0  9996
2 57182  97.6064 299.8577 0016917 202.3827 157.6666 15.10321301 65412
MONITOR-2 (RS39S)       
1 57184U 23091U   24248.18039359  .00012791  00000+0  81267-3 0  9994
2 57184  97.6067 299.8760 0013742 195.4749 164.6061 15.08904913 65419
SVYATOBOR 1 (RS60S)     
1 57187U 23091X   24248.17826450  .00017741  00000+0  10642-2 0  9990
2 57187  97.6070 300.5000 0013289 191.7893 168.3027 15.10930952 65450
VIZARD-METEO (RS38S)    
1 57189U 23091Z   24248.18420747  .00024013  00000+0  13674-2 0  9990
2 57189  97.6062 301.0641 0012294 188.1442 171.9591 15.12757010 65499
NANOZOND 1 (RS49S)      
1 57190U 23091AA  24248.16459224  .00032638  00000+0  16799-2 0  9995
2 57190  97.6039 301.8652 0010659 190.7760 169.3246 15.16301348 65558
POLYTECH-UNIVERSE 3 (R*)
1 57191U 23091AB  24248.18724703  .00012313  00000+0  78161-3 0  9995
2 57191  97.6038 299.5284 0018506 213.9061 146.0986 15.08882445 65403
UTMN 2 (RS27S)          
1 57203U 23091AP  24248.13808366  .00021866  00000+0  12685-2 0  9993
2 57203  97.6068 300.8147 0012637 188.0316 172.0713 15.12104020 65473
ARCCUBE 1 (RS25S)       
1 57205U 23091AR  24248.20367561  .00038249  00000+0  18719-2 0  9997
2 57205  97.6004 302.1435 0010725 191.0175 169.0825 15.18031993 65589
KUZGTU 1 (RS47S)        
1 57217U 23091AV  24248.17272574  .00020923  00000+0  12590-2 0  9996
2 57217  97.6049 299.9353 0016498 202.2630 157.7885 15.10742182 65421
HADES-D (SO-121)        
1 58567U 23174CY  24247.20365434  .00158649  00000+0  34432-2 0  9994
2 58567  97.4465 323.7802 0009621 291.2953  68.7267 15.43731629 45750
OOV-CUBE (TUBSAT-30)    
1 60240U 24128F   24247.65391683  .00007788  00000+0  69014-3 0  9991
2 60240  62.0000 328.8783 0013713 318.2489  41.7552 14.96887194  8358
